H1 CPF 01  gfz 2021 09 08 00  7503 tandemx   
H2 1003001  6202 36605    2021 09 07 12 59 42 2021 09 12 00 00 42   120 1 1  0 0 0
H9
10 0 59467  35982.000000  0   -2950843.942   3733337.224  -4988906.263
10 0 59467  36102.000000  0   -3153767.298   4341004.143  -4328730.862
10 0 59467  36222.000000  0   -3291840.200   4876154.504  -3592733.479
10 0 59467  36342.000000  0   -3363960.684   5328243.946  -2793736.456
10 0 59467  36462.000000  0   -3370345.298   5688150.815  -1945698.363
10 0 59467  36582.000000  0   -3312505.994   5948369.706  -1063472.677
10 0 59467  36702.000000  0   -3193198.875   6103175.715   -162545.120
10 0 59467  36822.000000  0   -3016348.886   6148754.787    741242.070
10 0 59467  36942.000000  0   -2786950.501   6083299.079   1631978.000
10 0 59467  37062.000000  0   -2510943.251   5907059.395   2493974.448
10 0 59467  37182.000000  0   -2195068.684   5622354.400   3312050.850
10 0 59467  37302.000000  0   -1846713.448   5233538.810   4071807.689
10 0 59467  37422.000000  0   -1473741.858   4746931.492   4759884.051
10 0 59467  37542.000000  0   -1084321.147   4170705.138   5364194.358
10 0 59467  37662.000000  0    -686744.060   3514740.088   5874138.847
10 0 59467  37782.000000  0    -289254.558   2790446.549   6280785.545
10 0 59467  37902.000000  0     100121.433   2010559.113   6577020.598
10 0 59467  38022.000000  0     473736.302   1188908.944   6757667.068
10 0 59467  38142.000000  0     824469.746    340175.431   6819569.794
10 0 59467  38262.000000  0    1145863.162   -520375.546   6761646.402
10 0 59467  38382.000000  0    1432237.876  -1377165.521   6584906.290
10 0 59467  38502.000000  0    1678795.649  -2214584.988   6292434.285
10 0 59467  38622.000000  0    1881699.572  -3017278.155   5889340.898
10 0 59467  38742.000000  0    2038134.257  -3770426.788   5382678.029
10 0 59467  38862.000000  0    2146343.998  -4460027.112   4781320.559
10 0 59467  38982.000000  0    2205648.888  -5073154.763   4095816.788
10 0 59467  39102.000000  0    2216439.536  -5598215.429   3338208.021
10 0 59467  39222.000000  0    2180147.046  -6025173.200   2521817.744
10 0 59467  39342.000000  0    2099190.433  -6345750.601   1661015.615
10 0 59467  39462.000000  0    1976904.108  -6553595.537    770960.967
10 0 59467  39582.000000  0    1817444.942  -6644413.085   -132669.772
10 0 59467  39702.000000  0    1625682.253  -6616058.157  -1033967.927
10 0 59467  39822.000000  0    1407071.288  -6468581.761  -1917084.229
10 0 59467  39942.000000  0    1167514.920  -6204232.393  -2766514.726
10 0 59467  40062.000000  0     913218.680  -5827413.079  -3567379.126
10 0 59467  40182.000000  0     650543.500  -5344596.332  -4305683.114
10 0 59467  40302.000000  0     385857.124  -4764200.473  -4968561.365
10 0 59467  40422.000000  0     125389.269  -4096430.682  -5544495.924
10 0 59467  40542.000000  0    -124906.239  -3353089.113  -6023508.098
10 0 59467  40662.000000  0    -359479.579  -2547358.315  -6397320.538
10 0 59467  40782.000000  0    -573300.889  -1693563.246  -6659488.688
10 0 59467  40902.000000  0    -761962.255   -806916.598  -6805500.963
10 0 59467  41022.000000  0    -921763.932     96749.175  -6832848.560
10 0 59467  41142.000000  0   -1049783.814   1001258.954  -6741062.588
10 0 59467  41262.000000  0   -1143929.432   1890376.689  -6531720.973
10 0 59467  41382.000000  0   -1202971.540   2748089.235  -6208424.117
10 0 59467  41502.000000  0   -1226559.014   3558889.296  -5776741.349
10 0 59467  41622.000000  0   -1215215.082   4308053.910  -5244124.634
10 0 59467  41742.000000  0   -1170314.278   4981912.970  -4619791.676
10 0 59467  41862.000000  0   -1094041.149   5568104.512  -3914577.359
10 0 59467  41982.000000  0    -989330.464   6055809.774  -3140754.428
10 0 59467  42102.000000  0    -859790.045   6435963.061  -2311827.018
10 0 59467  42222.000000  0    -709607.614   6701432.911  -1442298.717
10 0 59467  42342.000000  0    -543444.021   6847167.526   -547418.415
10 0 59467  42462.000000  0    -366314.399   6870301.933    357090.304
10 0 59467  42582.000000  0    -183460.413   6770222.848   1255312.624
10 0 59467  42702.000000  0       -217.640   6548586.986   2131432.797
10 0 59467  42822.000000  0     178118.434   6209291.514   2970021.558
10 0 59467  42942.000000  0     346424.763   5758400.886   3756314.188
10 0 59467  43062.000000  0     499878.735   5204033.495   4476475.318
10 0 59467  43182.000000  0     634077.794   4556206.146   5117849.943
10 0 59467  43302.000000  0     745147.544   3826638.122   5669182.694
10 0 59467  43422.000000  0     829837.660   3028532.413   6120811.091
10 0 59467  43542.000000  0     885601.514   2176328.780   6464830.694
10 0 59467  43662.000000  0     910658.465   1285437.010   6695227.495
10 0 59467  43782.000000  0     904038.456    371954.647   6807977.056
10 0 59467  43902.000000  0     865607.848   -547623.682   6801109.689
10 0 59467  44022.000000  0     796075.853  -1456703.292   6674744.176
10 0 59467  44142.000000  0     696981.428  -2338888.925   6431086.184
10 0 59467  44262.000000  0     570660.820  -3178281.117   6074392.859
10 0 59467  44382.000000  0     420196.045  -3959765.022   5610900.864
10 0 59467  44502.000000  0     249346.371  -4669283.723   5048721.917
10 0 59467  44622.000000  0      62463.909  -5294095.651   4397708.451
10 0 59467  44742.000000  0    -135606.488  -5823013.196   3669287.289
10 0 59467  44862.000000  0    -339641.592  -6246613.530   2876261.322
10 0 59467  44982.000000  0    -544164.662  -6557416.874   2032584.022
10 0 59467  45102.000000  0    -743577.700  -6750026.669   1153111.173
10 0 59467  45222.000000  0    -932298.928  -6821232.453    253334.086
10 0 59467  45342.000000  0   -1104901.873  -6770066.998   -650903.170
10 0 59467  45462.000000  0   -1256250.804  -6597816.675  -1543692.142
10 0 59467  45582.000000  0   -1381629.918  -6307986.946  -2409347.790
10 0 59467  45702.000000  0   -1476863.714  -5906224.581  -3232690.456
10 0 59467  45822.000000  0   -1538425.328  -5400197.696  -3999316.516
10 0 59467  45942.000000  0   -1563529.743  -4799436.780  -4695850.771
10 0 59467  46062.000000  0   -1550209.925  -4115142.979  -5310175.310
10 0 59467  46182.000000  0   -1497374.815  -3359969.338  -5831632.758
10 0 59467  46302.000000  0   -1404847.942  -2547779.491  -6251201.768
10 0 59467  46422.000000  0   -1273386.129  -1693388.269  -6561642.101
10 0 59467  46542.000000  0   -1104678.618   -812290.751  -6757607.702
10 0 59467  46662.000000  0    -901327.123     79615.728  -6835729.002
10 0 59467  46782.000000  0    -666805.989    966312.672  -6794663.746
10 0 59467  46902.000000  0    -405403.635   1831940.389  -6635117.176
10 0 59467  47022.000000  0    -122147.095   2661074.049  -6359831.365
10 0 59467  47142.000000  0     177290.888   3438993.326  -5973545.063
10 0 59467  47262.000000  0     486701.748   4151942.072  -5482920.700
10 0 59467  47382.000000  0     799464.397   4787371.652  -4896439.801
10 0 59467  47502.000000  0    1108680.939   5334166.873  -4224268.475
10 0 59467  47622.000000  0    1407322.893   5782849.036  -3478091.224
10 0 59467  47742.000000  0    1688384.470   6125750.554  -2670915.928
10 0 59467  47862.000000  0    1945039.773   6357158.345  -1816852.353
10 0 59467  47982.000000  0    2170800.559   6473421.409   -930866.288
10 0 59467  48102.000000  0    2359670.333   6473017.999    -28513.806
10 0 59467  48222.000000  0    2506290.420   6356580.220    874337.919
10 0 59467  48342.000000  0    2606074.388   6126875.550   1761796.993
10 0 59467  48462.000000  0    2655327.337   5788745.745   2618234.684
10 0 59467  48582.000000  0    2651347.302   5349004.622   3428568.558
10 0 59467  48702.000000  0    2592506.234   4816296.867   4178535.116
10 0 59467  48822.000000  0    2478307.677   4200921.647   4854947.062
10 0 59467  48942.000000  0    2309418.186   3514622.121   5445926.941
10 0 59467  49062.000000  0    2087675.453   2770353.055   5941111.253
10 0 59467  49182.000000  0    1816073.260   1982030.737   6331828.121
10 0 59467  49302.000000  0    1498721.252   1164267.262   6611244.641
10 0 59467  49422.000000  0    1140781.398    332095.905   6774479.344
10 0 59467  49542.000000  0     748383.265   -499304.680   6818681.443
10 0 59467  49662.000000  0     328518.837  -1314886.686   6743079.318
10 0 59467  49782.000000  0    -111082.347  -2100005.854   6548993.258
10 0 59467  49902.000000  0    -562095.597  -2840684.615   6239813.513
10 0 59467  50022.000000  0   -1015757.510  -3523861.958   5820942.915
10 0 59467  50142.000000  0   -1463033.210  -4137624.432   5299707.083
10 0 59467  50262.000000  0   -1894794.865  -4671417.989   4685234.837
10 0 59467  50382.000000  0   -2302008.538  -5116237.516   3988305.557
10 0 59467  50502.000000  0   -2675924.223  -5464788.318   3221163.317
10 0 59467  50622.000000  0   -3008263.455  -5711613.126   2397301.208
10 0 59467  50742.000000  0   -3291400.752  -5853183.251   1531222.140
10 0 59467  50862.000000  0   -3518535.065  -5887952.450    638179.044
10 0 59467  50982.000000  0   -3683846.720  -5816371.000   -266100.645
10 0 59467  51102.000000  0   -3782635.795  -5640859.761  -1165700.474
10 0 59467  51222.000000  0   -3811438.053  -5365743.793  -2044804.550
10 0 59467  51342.000000  0   -3768115.479  -4997147.248  -2887983.763
10 0 59467  51462.000000  0   -3651918.988  -4542852.897  -3680472.164
10 0 59467  51582.000000  0   -3463521.976  -4012131.011  -4408427.030
10 0 59467  51702.000000  0   -3205025.242  -3415543.153  -5059168.128
10 0 59467  51822.000000  0   -2879933.670  -2764725.287  -5621392.747
10 0 59467  51942.000000  0   -2493105.887  -2072155.775  -6085362.895
10 0 59467  52062.000000  0   -2050678.048  -1350913.619  -6443063.887
10 0 59467  52182.000000  0   -1559962.837   -614430.883  -6688331.387
10 0 59467  52302.000000  0   -1029327.417    123754.933  -6816945.636
10 0 59467  52422.000000  0    -468052.689    850243.885  -6826695.370
99
